start=new Date('2023-01-12T00:00:00.000Z').valueOf();
sats=[{"TIME_SYSTEM":"UTC","BSTAR":"0.00016563000000","MEAN_ANOMALY":"283.3135","CLASSIFICATION_TYPE":"U","RCS_SIZE":"LARGE","OBJECT_TYPE":"PAYLOAD","REF_FRAME":"TEME","LAUNCH_DATE":"2020-02-17","PERIAPSIS":"546.236","MEAN_MOTION":"15.06405067","DECAY_DATE":null,"RA_OF_ASC_NODE":"142.8826","ECCENTRICITY":"0.00013890","TLE_LINE1":"1 45206U 20012AE  23011.63438679  .00002187  00000-0  16563-3 0  9997","OBJECT_ID":"2020-012AE","FILE":"3740419","MEAN_ELEMENT_THEORY":"SGP4","PERIOD":"95.592","EPOCH":"2023-01-11T15:13:31.018656","OBJECT_NAME":"STARLINK-1209","SEMIMAJOR_AXIS":"6925.333","GP_ID":"222821217","ELEMENT_SET_NO":"999","APOAPSIS":"548.160","CENTER_NAME":"EARTH","ARG_OF_PERICENTER":"76.8009","COUNTRY_CODE":"US","TLE_LINE2":"2 45206  53.0552 142.8826 0001389  76.8009 283.3135 15.06405067160658","INCLINATION":"53.0552","MEAN_MOTION_DDOT":"0.0000000000000","SITE":"AFETR","EPHEMERIS_TYPE":"0","NORAD_CAT_ID":"45206","REV_AT_EPOCH":"16065","MEAN_MOTION_DOT":"0.00002187"},{"ARG_OF_PERICENTER":"89.1819","CENTER_NAME":"EARTH","APOAPSIS":"548.118","COUNTRY_CODE":"US","SEMIMAJOR_AXIS":"6925.400","GP_ID":"222821969","ELEMENT_SET_NO":"999","OBJECT_NAME":"STARLINK-1210","EPHEMERIS_TYPE":"0","REV_AT_EPOCH":"16135","MEAN_MOTION_DOT":"-0.00001174","NORAD_CAT_ID":"45207","SITE":"AFETR","INCLINATION":"53.0544","MEAN_MOTION_DDOT":"0.0000000000000","TLE_LINE2":"2 45207  53.0544 162.0220 0001233  89.1819 270.9311 15.06383350161352","LAUNCH_DATE":"2020-02-17","PERIAPSIS":"546.411","REF_FRAME":"TEME","MEAN_MOTION":"15.06383350","OBJECT_TYPE":"PAYLOAD","RCS_SIZE":"LARGE","CLASSIFICATION_TYPE":"U","TIME_SYSTEM":"UTC","BSTAR":"-0.00005998600000","MEAN_ANOMALY":"270.9311","EPOCH":"2023-01-11T19:52:10.425216","PERIOD":"95.593","FILE":"3740419","MEAN_ELEMENT_THEORY":"SGP4","ECCENTRICITY":"0.00012330","OBJECT_ID":"2020-012AF","TLE_LINE1":"1 45207U 20012AF  23011.82789844 -.00001174  00000-0 -59986-4 0  9996","DECAY_DATE":null,"RA_OF_ASC_NODE":"162.0220"},{"EPHEMERIS_TYPE":"0","REV_AT_EPOCH":"16123","MEAN_MOTION_DOT":"0.00002460","NORAD_CAT_ID":"45208","TLE_LINE2":"2 45208  52.9971 161.9937 0001164 102.3429 257.7689 15.05595976161232","SITE":"AFETR","MEAN_MOTION_DDOT":"0.0000000000000","INCLINATION":"52.9971","CENTER_NAME":"EARTH","ARG_OF_PERICENTER":"102.3429","APOAPSIS":"550.485","COUNTRY_CODE":"US","OBJECT_NAME":"STARLINK-1211","SEMIMAJOR_AXIS":"6927.814","GP_ID":"222821715","ELEMENT_SET_NO":"999","FILE":"3740419","MEAN_ELEMENT_THEORY":"SGP4","EPOCH":"2023-01-11T19:58:44.237280","PERIOD":"95.643","DECAY_DATE":null,"RA_OF_ASC_NODE":"161.9937","ECCENTRICITY":"0.00011640","TLE_LINE1":"1 45208U 20012AG  23011.83245645  .00002460  00000-0  18787-3 0  9994","OBJECT_ID":"2020-012AG","OBJECT_TYPE":"PAYLOAD","LAUNCH_DATE":"2020-02-17","REF_FRAME":"TEME","PERIAPSIS":"548.872","MEAN_MOTION":"15.05595976","CLASSIFICATION_TYPE":"U","BSTAR":"0.00018787000000","TIME_SYSTEM":"UTC","MEAN_ANOMALY":"257.7689","RCS_SIZE":"LARGE"},{"PERIOD":"95.592","EPOCH":"2023-01-11T19:57:29.569536","MEAN_ELEMENT_THEORY":"SGP4","FILE":"3740419","OBJECT_ID":"2020-012AJ","TLE_LINE1":"1 45210U 20012AJ  23011.83159224 -.00000829  00000-0 -36737-4 0  9999","ECCENTRICITY":"0.00012200","RA_OF_ASC_NODE":"162.0109","DECAY_DATE":null,"PERIAPSIS":"546.371","LAUNCH_DATE":"2020-02-17","MEAN_MOTION":"15.06399270","REF_FRAME":"TEME","OBJECT_TYPE":"PAYLOAD","RCS_SIZE":"LARGE","TIME_SYSTEM":"UTC","BSTAR":"-0.00003673700000","MEAN_ANOMALY":"274.4588","CLASSIFICATION_TYPE":"U","NORAD_CAT_ID":"45210","REV_AT_EPOCH":"16124","MEAN_MOTION_DOT":"-0.00000829","EPHEMERIS_TYPE":"0","MEAN_MOTION_DDOT":"0.0000000000000","INCLINATION":"53.0529","SITE":"AFETR","TLE_LINE2":"2 45210  53.0529 162.0109 0001220  85.6540 274.4588 15.06399270161244","COUNTRY_CODE":"US","APOAPSIS":"548.061","ARG_OF_PERICENTER":"85.6540","CENTER_NAME":"EARTH","GP_ID":"222820969","ELEMENT_SET_NO":"999","SEMIMAJOR_AXIS":"6925.351","OBJECT_NAME":"STARLINK-1219"},{"GP_ID":"222820719","ELEMENT_SET_NO":"999","SEMIMAJOR_AXIS":"6925.394","OBJECT_NAME":"STARLINK-1231","COUNTRY_CODE":"US","APOAPSIS":"547.823","ARG_OF_PERICENTER":"95.5849","CENTER_NAME":"EARTH","INCLINATION":"53.0541","MEAN_MOTION_DDOT":"0.0000000000000","SITE":"AFETR","TLE_LINE2":"2 45212  53.0541 161.8620 0000815  95.5849 264.5233 15.06385291161319","NORAD_CAT_ID":"45212","MEAN_MOTION_DOT":"-0.00001888","REV_AT_EPOCH":"16131","EPHEMERIS_TYPE":"0","RCS_SIZE":"LARGE","BSTAR":"-0.00010792000000","TIME_SYSTEM":"UTC","MEAN_ANOMALY":"264.5233","CLASSIFICATION_TYPE":"U","REF_FRAME":"TEME","LAUNCH_DATE":"2020-02-17","PERIAPSIS":"546.694","MEAN_MOTION":"15.06385291","OBJECT_TYPE":"PAYLOAD","OBJECT_ID":"2020-012AL","TLE_LINE1":"1 45212U 20012AL  23011.86477616 -.00001888  00000-0 -10792-3 0  9990","ECCENTRICITY":"0.00008150","RA_OF_ASC_NODE":"161.8620","DECAY_DATE":null,"PERIOD":"95.593","EPOCH":"2023-01-11T20:45:16.660224","MEAN_ELEMENT_THEORY":"SGP4","FILE":"3740419"},{"TLE_LINE2":"2 45213  53.0564  78.6968 0002858 123.3222 236.8058 15.46585844162542","SITE":"AFETR","MEAN_MOTION_DDOT":"0.0000000000000","INCLINATION":"53.0564","EPHEMERIS_TYPE":"0","MEAN_MOTION_DOT":"0.00026613","REV_AT_EPOCH":"16254","NORAD_CAT_ID":"45213","OBJECT_NAME":"STARLINK-1232","SEMIMAJOR_AXIS":"6804.859","ELEMENT_SET_NO":"999","GP_ID":"222821469","ARG_OF_PERICENTER":"123.3222","CENTER_NAME":"EARTH","APOAPSIS":"428.669","COUNTRY_CODE":"US","DECAY_DATE":null,"RA_OF_ASC_NODE":"78.6968","ECCENTRICITY":"0.00028580","OBJECT_ID":"2020-012AM","TLE_LINE1":"1 45213U 20012AM  23011.82860614  .00026613  00000-0  53284-3 0  9995","FILE":"3740419","MEAN_ELEMENT_THEORY":"SGP4","EPOCH":"2023-01-11T19:53:11.570496","PERIOD":"93.108","CLASSIFICATION_TYPE":"U","BSTAR":"0.00053284000000","TIME_SYSTEM":"UTC","MEAN_ANOMALY":"236.8058","RCS_SIZE":"LARGE","OBJECT_TYPE":"PAYLOAD","PERIAPSIS":"424.780","LAUNCH_DATE":"2020-02-17","REF_FRAME":"TEME","MEAN_MOTION":"15.46585844"},{"COUNTRY_CODE":"US","ARG_OF_PERICENTER":"71.2411","CENTER_NAME":"EARTH","APOAPSIS":"548.121","OBJECT_NAME":"STARLINK-1233","GP_ID":"222822216","ELEMENT_SET_NO":"999","SEMIMAJOR_AXIS":"6925.317","MEAN_MOTION_DOT":"-0.00000005","REV_AT_EPOCH":"16135","NORAD_CAT_ID":"45214","EPHEMERIS_TYPE":"0","TLE_LINE2":"2 45214  53.0535 161.9692 0001356  71.2411 288.8725 15.06410356161351","SITE":"AFETR","INCLINATION":"53.0535","MEAN_MOTION_DDOT":"0.0000000000000","OBJECT_TYPE":"PAYLOAD","REF_FRAME":"TEME","LAUNCH_DATE":"2020-02-17","PERIAPSIS":"546.243","MEAN_MOTION":"15.06410356","CLASSIFICATION_TYPE":"U","BSTAR":"0.00001857400000","MEAN_ANOMALY":"288.8725","TIME_SYSTEM":"UTC","RCS_SIZE":"LARGE","MEAN_ELEMENT_THEORY":"SGP4","FILE":"3740419","EPOCH":"2023-01-11T20:06:43.794432","PERIOD":"95.591","RA_OF_ASC_NODE":"161.9692","DECAY_DATE":null,"OBJECT_ID":"2020-012AN","TLE_LINE1":"1 45214U 20012AN  23011.83800688 -.00000005  00000-0  18574-4 0  9994","ECCENTRICITY":"0.00013560"},{"RCS_SIZE":"LARGE","MEAN_ANOMALY":"266.2703","BSTAR":"0.00005761100000","TIME_SYSTEM":"UTC","CLASSIFICATION_TYPE":"U","LAUNCH_DATE":"2020-02-17","PERIAPSIS":"546.262","REF_FRAME":"TEME","MEAN_MOTION":"15.06407318","OBJECT_TYPE":"PAYLOAD","TLE_LINE1":"1 45215U 20012AP  23011.83526659  .00000577  00000-0  57611-4 0  9996","OBJECT_ID":"2020-012AP","ECCENTRICITY":"0.00013410","RA_OF_ASC_NODE":"161.9895","DECAY_DATE":null,"PERIOD":"95.592","EPOCH":"2023-01-11T20:02:47.033376","MEAN_ELEMENT_THEORY":"SGP4","FILE":"3740419","GP_ID":"222820470","ELEMENT_SET_NO":"999","SEMIMAJOR_AXIS":"6925.326","OBJECT_NAME":"STARLINK-1245","COUNTRY_CODE":"US","APOAPSIS":"548.120","CENTER_NAME":"EARTH","ARG_OF_PERICENTER":"93.8440","INCLINATION":"53.0520","MEAN_MOTION_DDOT":"0.0000000000000","SITE":"AFETR","TLE_LINE2":"2 45215  53.0520 161.9895 0001341  93.8440 266.2703 15.06407318161290","NORAD_CAT_ID":"45215","REV_AT_EPOCH":"16129","MEAN_MOTION_DOT":"0.00000577","EPHEMERIS_TYPE":"0"},{"COUNTRY_CODE":"US","CENTER_NAME":"EARTH","ARG_OF_PERICENTER":"99.8255","APOAPSIS":"548.946","OBJECT_NAME":"STARLINK-1271","ELEMENT_SET_NO":"999","GP_ID":"222821218","SEMIMAJOR_AXIS":"6925.356","REV_AT_EPOCH":"16135","MEAN_MOTION_DOT":"0.00001657","NORAD_CAT_ID":"45217","EPHEMERIS_TYPE":"0","TLE_LINE2":"2 45217  53.0519 162.1042 0002492  99.8255 260.3015 15.06397728161356","SITE":"AFETR","INCLINATION":"53.0519","MEAN_MOTION_DDOT":"0.0000000000000","OBJECT_TYPE":"PAYLOAD","PERIAPSIS":"545.495","LAUNCH_DATE":"2020-02-17","REF_FRAME":"TEME","MEAN_MOTION":"15.06397728","CLASSIFICATION_TYPE":"U","TIME_SYSTEM":"UTC","BSTAR":"0.00013016000000","MEAN_ANOMALY":"260.3015","RCS_SIZE":"LARGE","MEAN_ELEMENT_THEORY":"SGP4","FILE":"3740419","EPOCH":"2023-01-11T19:25:40.141632","PERIOD":"95.592","RA_OF_ASC_NODE":"162.1042","DECAY_DATE":null,"OBJECT_ID":"2020-012AR","TLE_LINE1":"1 45217U 20012AR  23011.80949238  .00001657  00000-0  13016-3 0  9997","ECCENTRICITY":"0.00024920"},{"EPOCH":"2023-01-11T13:00:49.767552","PERIOD":"95.592","MEAN_ELEMENT_THEORY":"SGP4","FILE":"3740054","TLE_LINE1":"1 45219U 20012AT  23011.54224268  .00003911  00000-0  28126-3 0  9992","OBJECT_ID":"2020-012AT","ECCENTRICITY":"0.00014650","RA_OF_ASC_NODE":"143.2951","DECAY_DATE":null,"LAUNCH_DATE":"2020-02-17","PERIAPSIS":"546.172","REF_FRAME":"TEME","MEAN_MOTION":"15.06408822","OBJECT_TYPE":"PAYLOAD","RCS_SIZE":"LARGE","CLASSIFICATION_TYPE":"U","BSTAR":"0.00028126000000","MEAN_ANOMALY":"285.3408","TIME_SYSTEM":"UTC","REV_AT_EPOCH":"16160","MEAN_MOTION_DOT":"0.00003911","NORAD_CAT_ID":"45219","EPHEMERIS_TYPE":"0","SITE":"AFETR","INCLINATION":"53.0532","MEAN_MOTION_DDOT":"0.0000000000000","TLE_LINE2":"2 45219  53.0532 143.2951 0001465  74.7743 285.3408 15.06408822161604","COUNTRY_CODE":"US","ARG_OF_PERICENTER":"74.7743","CENTER_NAME":"EARTH","APOAPSIS":"548.201","ELEMENT_SET_NO":"999","GP_ID":"222761764","SEMIMAJOR_AXIS":"6925.322","OBJECT_NAME":"STARLINK-1187"}];
